CORVUS BC2              
1 42846U 17042X   26068.92684092  .00004947  00000+0  34626-3 0  9997
2 42846  97.3955 234.2405 0014586  92.3850 267.9047 15.05610206472122
STARLINK-5724           
1 56427U 23061BF  26068.32094746 -.00000646  00000+0 -32783-4 0  9997
2 56427  43.0032 173.9255 0001425 258.3214 101.7468 15.02532142156999
